[{"OBJECT_NAME":"STARLINK-30386","OBJECT_ID":"2023-138J","EPOCH":"2026-03-09T22:00:01.999584","MEAN_MOTION":15.26499019,"ECCENTRICITY":0.00015705,"INCLINATION":42.9998,"RA_OF_ASC_NODE":233.1022,"ARG_OF_PERICENTER":274.439,"MEAN_ANOMALY":338.5977,"EPHEMERIS_TYPE":0,"CLASSIFICATION_TYPE":"U","NORAD_CAT_ID":57816,"ELEMENT_SET_NO":999,"REV_AT_EPOCH":567,"BSTAR":0.0061986319,"MEAN_MOTION_DOT":0.00168628,"MEAN_MOTION_DDOT":0},{"OBJECT_NAME":"FLOCK 4G-34","OBJECT_ID":"2025-009AT","EPOCH":"2026-03-09T17:34:06.952224","MEAN_MOTION":15.27131464,"ECCENTRICITY":6.743e-5,"INCLINATION":97.4004,"RA_OF_ASC_NODE":151.0149,"ARG_OF_PERICENTER":348.828,"MEAN_ANOMALY":11.2944,"EPHEMERIS_TYPE":0,"CLASSIFICATION_TYPE":"U","NORAD_CAT_ID":62650,"ELEMENT_SET_NO":999,"REV_AT_EPOCH":6372,"BSTAR":0.00049338357,"MEAN_MOTION_DOT":0.00013063,"MEAN_MOTION_DDOT":0}]
